FENGYUN 3C              
1 39260U 13052A   23124.92859177  .00000218  00000+0  13114-3 0  9994
2 39260  98.4305 141.3548 0012272  70.5543 289.6961 14.16030418497419
CASSIOPE                
1 39265U 13055A   23124.89855889  .00021785  00000+0  52924-3 0  9998
2 39265  80.9578 283.9697 0576457  78.6679 287.8683 14.50403243498701
ZACUBE-1 (TSHEPISOSAT)  
1 39417U 13066B   23125.17048273  .00004706  00000+0  54681-3 0  9998
2 39417  97.6824  88.3636 0056978  69.6155 291.1168 14.84636929510818
CINEMA-3 (KHUSAT-2)     
1 39426U 13066L   23124.84384103  .00001908  00000+0  29335-3 0  9995
2 39426  97.8271  56.5124 0099602 286.2499  72.7769 14.71389071506504
TRITON-1                
1 39427U 13066M   23125.24600089  .00003530  00000+0  53657-3 0  9992
2 39427  97.8353  52.7371 0107365 316.0235  43.2465 14.70797698506237
DELFI-N3XT              
1 39428U 13066N   23124.75176543  .00006241  00000+0  90509-3 0  9990
2 39428  97.8335  51.1403 0110700 329.8358  29.6505 14.72242440505742
GOMX-1                  
1 39430U 13066Q   23125.19942795  .00002157  00000+0  38001-3 0  9993
2 39430  97.7852  18.8418 0147340 109.1386 252.5836 14.61612586503263
BRITE-PL1 (LEM)         
1 39431U 13066R   23124.58793538  .00000543  00000+0  12459-3 0  9991
2 39431  97.6801 314.3735 0198972 313.2778  45.1964 14.47895269498821
ICUBE-1                 
1 39432U 13066S   23125.26209041  .00006096  00000+0  55700-3 0  9994
2 39432  97.4834 118.0879 0027012 266.3577  93.4555 14.95098848513938
HUMSAT-D                
1 39433U 13066T   23125.23358832  .00007051  00000+0  58780-3 0  9998
2 39433  97.4540 126.0052 0024839 233.4111 126.4827 14.98660960514504
VELOX-PII               
1 39438U 13066Y   23125.14092255  .00002772  00000+0  35254-3 0  9993
2 39438  97.7392  80.0179 0068336 127.6204 233.1238 14.80745877509703
FIRST-MOVE              
1 39439U 13066Z   23124.88897123  .00009610  00000+0  99511-3 0  9995
2 39439  97.6777  91.7134 0059146  61.6491 299.0674 14.88940770509784
CUBEBUG-2 (LO-74)       
1 39440U 13066AA  23124.81051584  .00002680  00000+0  35142-3 0  9993
2 39440  97.7698  74.9984 0076019 167.0506 193.2682 14.79129261507743
NEE-02 KRYSAOR          
1 39441U 13066AB  23124.79760953  .00001848  00000+0  25496-3 0  9994
2 39441  97.7808  71.8832 0078265 183.4330 176.6354 14.77248672507441
FUNCUBE-1 (AO-73)       
1 39444U 13066AE  23124.84495652  .00006103  00000+0  68090-3 0  9990
2 39444  97.6685  90.5600 0055140  56.9145 303.7348 14.86255792509205
HINCUBE                 
1 39445U 13066AF  23124.87585176  .00005236  00000+0  58870-3 0  9996
2 39445  97.6702  90.3643 0055327  59.3201 301.3451 14.85998578509145
UWE-3                   
1 39446U 13066AG  23125.14933217  .00003587  00000+0  44383-3 0  9992
2 39446  97.7320  81.5178 0067405 118.9672 241.8321 14.81740612508640
AIST-1 (RS-41)          
1 39492U 13078C   23124.97656550  .00002124  00000+0  21956-3 0  9995
2 39492  82.4152 288.7737 0020411 118.1216 242.2081 14.89532711507621
SPROUT                  
1 39770U 14029E   23125.24204064  .00021319  00000+0  16896-2 0  9994
2 39770  97.9721 251.2895 0008006  94.7796 265.4340 15.00551622485717
UNISAT-6                
1 40012U 14033C   23125.23378022  .00003270  00000+0  46429-3 0  9997
2 40012  97.6706 301.4154 0055602 194.3665 165.5968 14.76541513477436
BUGSAT-1 (TITA)         
1 40014U 14033E   23124.98028116  .00004473  00000+0  36976-3 0  9998
2 40014  98.1419 142.0131 0029479  55.7262 304.6746 14.99153444484261
DUCHIFAT-1              
1 40021U 14033M   23124.86010018  .00008026  00000+0  69571-3 0  9990
2 40021  98.0563  87.4554 0013320  62.4661 297.7912 14.97308876482708
NANOSATC-BR1            
1 40024U 14033Q   23124.83516607  .00006543  00000+0  59676-3 0  9992
2 40024  98.0263  78.9006 0012897  69.7111 290.5494 14.95394038481936
QB50P1                  
1 40025U 14033R   23124.79317429  .00005798  00000+0  55545-3 0  9991
2 40025  97.9945  70.7993 0013239  79.8551 280.4160 14.93496023481661
DTUSAT-2                
1 40030U 14033W   23124.78235673  .00005429  00000+0  53122-3 0  9996
2 40030  97.9659  64.7845 0012794  77.2151 283.0497 14.92684748481520
QB50P2                  
1 40032U 14033Y   23124.82526295  .00004667  00000+0  45756-3 0  9993
2 40032  97.9655  64.8456 0012494  77.6496 282.6121 14.92686011481502
POLYITAN-1              
1 40042U 14033AJ  23124.88485287  .00006544  00000+0  61458-3 0  9998
2 40042  98.0065  72.6603 0015135  71.6568 288.6296 14.94210718481575
TIGRISAT                
1 40043U 14033AK  23124.67476025  .00002577  00000+0  36875-3 0  9993
2 40043  97.6632 301.9195 0057665 193.5568 166.4096 14.76308820476996
AISAT                   
1 40054U 14034B   23124.86951318  .00005571  00000+0  69334-3 0  9993
2 40054  98.3683 315.0350 0011360  11.6054 348.5418 14.82900463477049
CANX-4                  
1 40055U 14034C   23124.91940560  .00001526  00000+0  22726-3 0  9997
2 40055  98.3880 298.2244 0014890  58.5484 301.7178 14.76408104476165
CANX-5                  
1 40056U 14034D   23124.45190078  .00001442  00000+0  21521-3 0  9997
2 40056  98.3884 297.7241 0014900  60.1166 300.1521 14.76408773466873
VELOX-I                 
1 40057U 14034E   23124.98419192  .00004056  00000+0  52306-3 0  9996
2 40057  98.3743 316.0781 0010420  28.2315 331.9463 14.81592349477032
METEOR-M 2              
1 40069U 14037A   23124.74873922  .00000111  00000+0  70326-4 0  9992
2 40069  98.4247 132.7389 0006895 104.2111 255.9827 14.20773008457484
DX1                     
1 40071U 14037C   23124.93953532  .00001614  00000+0  20642-3 0  9996
2 40071  98.3661  13.9902 0008551  13.2282 346.9159 14.82847062476969
UKUBE-1                 
1 40074U 14037F   23124.68016272  .00004383  00000+0  48488-3 0  9996
2 40074  98.3480  26.8890 0003775 351.8457   8.2718 14.87924732477783
FIREBIRD 3              
1 40377U 15003B   23125.11986450  .00140652  00000+0  15206-2 0  9990
2 40377  99.0769  71.6317 0048873   5.4228 354.7543 15.61634211457905
FIREBIRD 4              
1 40378U 15003C   23124.80337384  .00134420  00000+0  14564-2 0  9994
2 40378  99.0788  71.5419 0049266   5.5937 354.5854 15.61573270457858
GRIFEX                  
1 40379U 15003D   23125.14279155  .00042346  00000+0  10002-2 0  9992
2 40379  99.0796  51.6410 0088534  60.3751 300.6271 15.37658738456762
CP10 (EXOCUBE)          
1 40380U 15003E   23124.80599861  .00024035  00000+0  70128-3 0  9996
2 40380  99.0858  41.6456 0103193  92.7366 268.5686 15.30136488456085
DEORBITSAIL             
1 40719U 15032E   23124.92104503  .00004839  00000+0  62766-3 0  9991
2 40719  97.7405 357.2220 0016102  44.0126 316.2365 14.81136199421414
XW-2C                   
1 40906U 15049H   23125.08641184  .00012241  00000+0  48636-3 0  9992
2 40906  97.4958 132.1098 0010369 322.0849 108.5480 15.25414640421829
XW-2D                   
1 40907U 15049J   23125.28598704  .00014692  00000+0  55360-3 0  9998
2 40907  97.4936 132.7331 0009046 314.9838 103.4851 15.27149416421936
LILACSAT-2              
1 40908U 15049K   23124.96785597  .00006313  00000+0  30240-3 0  9992
2 40908  97.5265 128.1620 0013611 348.5379  67.2996 15.19213563421235
XW-2E                   
1 40909U 15049L   23124.96840951  .00027602  00000+0  78898-3 0  9994
2 40909  97.4561 138.2537 0006351 275.1397 110.7083 15.35938217422501
XW-2F                   
1 40910U 15049M   23124.95017186  .00027315  00000+0  79619-3 0  9994
2 40910  97.4655 137.4610 0007097 276.8949 120.0902 15.35321510422257
XW-2B                   
1 40911U 15049N   23124.94851172  .00014561  00000+0  55228-3 0  9994
2 40911  97.4916 132.8575 0009114 318.1687 101.6874 15.26932497421768
KAITUO 1B               
1 40912U 15049P   23124.94816626  .00034477  00000+0  84265-3 0  9991
2 40912  97.4213 141.9720 0007561 223.3217 224.8969 15.40714643422943
LAPAN-A2                
1 40931U 15052B   23124.81390073  .00001205  00000+0  77373-4 0  9991
2 40931   5.9939  36.1586 0013553  38.9025 321.2108 14.77188253410937
LQSAT                   
1 40958U 15057A   23125.06926732  .00000815  00000+0  13139-3 0  9995
2 40958  97.7068 161.1631 0018194   8.2941 351.8582 14.73848913407349
ATHENOXAT 1             
1 41168U 15077C   23123.44528929  .00109403  00000+0  19405-2 0  9991
2 41168  14.9864 210.1252 0006382 117.9233 328.5336 15.48345269409350
GALASSIA                
1 41170U 15077E   23124.44095847  .00039510  00000+0  10604-2 0  9996
2 41170  14.9866 205.6573 0008482 133.5989 226.5040 15.35902202409312
VELOX-II                
1 41171U 15077F   23124.82267682  .00020969  00000+0  76388-3 0  9997
2 41171  14.9905 298.7395 0005911 300.1555  59.8181 15.25727473408560
CHUBUSAT-2              
1 41338U 16012B   23125.26414203  .00003860  00000+0  26854-3 0  9998
2 41338  31.0015 132.1605 0012123 111.5598 248.6331 15.03675473395913
CHUBUSAT-3              
1 41339U 16012C   23125.13348168  .00003324  00000+0  23115-3 0  9993
2 41339  31.0104 130.0422 0011781 118.7390 301.7073 15.03559252395892
HORYU-4                 
1 41340U 16012D   23124.29467106  .00006601  00000+0  42032-3 0  9995
2 41340  31.0030 105.5161 0011655 165.1849 194.9132 15.07294106396093
OUFTI-1                 
1 41458U 16025C   23124.51394647  .00032582  00000+0  93660-3 0  9993
2 41458  98.1870 323.7731 0105189 243.2050 115.8399 15.30316179386361
E-ST@R-II               
1 41459U 16025D   23124.82055533  .00024669  00000+0  76511-3 0  9999
2 41459  98.1900 321.8065 0111709 249.2468 109.6775 15.27416069386273
AAUSAT 4                
1 41460U 16025E   23124.57100880  .00083262  00000+0  14316-2 0  9997
2 41460  98.1682 332.6579 0071584 208.2945 211.1353 15.47937691387007
AIST-2D (RS-48)         
1 41465U 16026B   23124.91766061  .00027130  00000+0  39374-3 0  9994
2 41465  97.0053 357.0371 0008804  47.4820  79.1583 15.55750427393231
